63152,STARLINK-32915,2025,94.27,-1.0,+,43.0,Active,0,LEO,USA,USA,Unknown,Unknown,Unknown,1 63152U 25043W   25295.46685659  .00055052  00000+0  19951-2 0  9996,2 63152  43.0024  83.6599 0000533 254.3368 105.7425 15.27582074 36143,15.27582074,5.33e-05,LEO
63183,STARLINK-11602 [DTC],2025,91.67,-1.0,+,43.0,Active,0,LEO,USA,USA,Unknown,Unknown,Unknown,1 63183U 25048A   25295.43428873  .00290333  00000+0  21816-2 0  9991,2 63183  42.9998  73.5735 0001735 267.2347  92.8322 15.70909938 36399,15.70909938,0.0001735,LEO
63184,STARLINK-11617 [DTC],2025,91.66,-1.0,+,43.0,Active,0,LEO,USA,USA,Unknown,Unknown,Unknown,1 63184U 25048B   25295.42897708  .00454777  00000+0  33400-2 0  9994,2 63184  42.9996  73.5304 0002022 258.3851 101.6789 15.70964424 36770,15.70964424,0.0002022,LEO
63185,STARLINK-11618 [DTC],2025,91.67,-1.0,+,43.0,Active,0,LEO,USA,USA,Unknown,Unknown,Unknown,1 63185U 25048C   25295.39712451  .00376267  00000+0  28003-2 0  9992,2 63185  42.9993  73.2734 0003629 300.4002  59.6506 15.70879469 36765,15.70879469,0.0003629,LEO
63186,STARLINK-11646 [DTC],2025,91.67,-1.0,+,43.0,Active,0,LEO,USA,USA,Unknown,Unknown,Unknown,1 63186U 25048D   25295.51367039  .00228915  00000+0  17379-2 0  9995,2 63186  42.9994  72.4204 0001667 274.0124  86.0553 15.70851688 36793,15.70851688,0.0001667,LEO
63187,STARLINK-11622 [DTC],2025,91.67,-1.0,+,43.0,Active,0,LEO,USA,USA,Unknown,Unknown,Unknown,1 63187U 25048E   25295.50318932  .00413444  00000+0  30635-2 0  9996,2 63187  42.9993  73.2310 0001409 258.5073 101.5637 15.70874634 36785,15.70874634,0.0001409,LEO
63188,STARLINK-11642 [DTC],2025,91.67,-1.0,+,43.0,Active,0,LEO,USA,USA,Unknown,Unknown,Unknown,1 63188U 25048F   25295.41835782  .00191315  00000+0  14578-2 0  9992,2 63188  42.9998  73.4438 0002506 275.4474  84.6107 15.70881823 36776,15.70881823,0.0002506,LEO
63189,STARLINK-11639 [DTC],2025,91.67,-1.0,+,43.0,Active,0,LEO,USA,USA,Unknown,Unknown,Unknown,1 63189U 25048G   25295.40774161  .00437663  00000+0  32254-2 0  9995,2 63189  42.9999  73.3567 0002088 268.3210  91.7419 15.70933051 36770,15.70933051,0.0002088,LEO
63190,STARLINK-11637 [DTC],2025,91.67,-1.0,+,43.0,Active,0,LEO,USA,USA,Unknown,Unknown,Unknown,1 63190U 25048H   25295.44050884  .00309418  00000+0  23249-2 0  9990,2 63190  42.9983  73.6201 0001523 266.9412  93.1282 15.70853552 36775,15.70853552,0.0001523,LEO
63191,STARLINK-11647 [DTC],2025,91.67,-1.0,+,43.0,Active,0,LEO,USA,USA,Unknown,Unknown,Unknown,1 63191U 25048J   25295.40242826  .00254368  00000+0  19205-2 0  9996,2 63191  42.9994  73.3105 0002410 266.2994  93.7598 15.70904817 36779,15.70904817,0.000241,LEO
63192,STARLINK-11643 [DTC],2025,91.67,-1.0,+,43.0,Active,0,LEO,USA,USA,Unknown,Unknown,Unknown,1 63192U 25048K   25295.09514494  .00411026  00000+0  30406-2 0  9997,2 63192  42.9999  75.3142 0001311  18.3682 341.7233 15.70920539 36723,15.70920539,0.0001311,LEO
63193,STARLINK-11635 [DTC],2025,91.67,-1.0,+,43.0,Active,0,LEO,USA,USA,Unknown,Unknown,Unknown,1 63193U 25048L   25295.51898031  .00250733  00000+0  18991-2 0  9998,2 63193  42.9994  72.4606 0002454 286.5583  73.5015 15.70839446 36791,15.70839446,0.0002454,LEO
63194,STARLINK-11636 [DTC],2025,91.67,-1.0,+,43.0,Active,0,LEO,USA,USA,Unknown,Unknown,Unknown,1 63194U 25048M   25295.42366946  .00271349  00000+0  20450-2 0  9993,2 63194  42.9995  73.4841 0001785 264.0134  96.0531 15.70897153 36774,15.70897153,0.0001785,LEO
63195,STARLINK-11631 [DTC],2025,91.67,-1.0,+,43.0,Active,0,LEO,USA,USA,Unknown,Unknown,Unknown,1 63195U 25048N   25295.50848753  .00162171  00000+0  12409-2 0  9991,2 63195  42.9984  73.2697 0000933 248.4407 111.6362 15.70876241 36785,15.70876241,9.33e-05,LEO
63196,STARLINK-32946,2025,94.27,-1.0,+,43.0,Active,0,LEO,USA,USA,Unknown,Unknown,Unknown,1 63196U 25048P   25295.44472995  .00029032  00000+0  10601-2 0  9996,2 63196  43.0001 150.0627 0001033 272.2294  87.8439 15.27587446 35906,15.27587446,0.0001033,LEO
63197,STARLINK-32960,2025,94.27,-1.0,+,43.0,Active,0,LEO,USA,USA,Unknown,Unknown,Unknown,1 63197U 25048Q   25295.48489480  .00034185  00000+0  12451-2 0  9998,2 63197  42.9999 145.9897 0001581 275.0444  85.0227 15.27605731 35957,15.27605731,0.0001581,LEO
