[{"OBJECT_NAME":"STARLINK-32915","OBJECT_ID":"2025-043W","EPOCH":"2025-10-22T11:12:16.409376","MEAN_MOTION":15.27582074,"ECCENTRICITY":5.33e-5,"INCLINATION":43.0024,"RA_OF_ASC_NODE":83.6599,"ARG_OF_PERICENTER":254.3368,"MEAN_ANOMALY":105.7425,"EPHEMERIS_TYPE":0,"CLASSIFICATION_TYPE":"U","NORAD_CAT_ID":63152,"ELEMENT_SET_NO":999,"REV_AT_EPOCH":3614,"BSTAR":0.0019951,"MEAN_MOTION_DOT":0.00055052,"MEAN_MOTION_DDOT":0},{"OBJECT_NAME":"STARLINK-11602 [DTC]","OBJECT_ID":"2025-048A","EPOCH":"2025-10-22T10:25:22.546272","MEAN_MOTION":15.70909938,"ECCENTRICITY":0.0001735,"INCLINATION":42.9998,"RA_OF_ASC_NODE":73.5735,"ARG_OF_PERICENTER":267.2347,"MEAN_ANOMALY":92.8322,"EPHEMERIS_TYPE":0,"CLASSIFICATION_TYPE":"U","NORAD_CAT_ID":63183,"ELEMENT_SET_NO":999,"REV_AT_EPOCH":3639,"BSTAR":0.0021816,"MEAN_MOTION_DOT":0.00290333,"MEAN_MOTION_DDOT":0},{"OBJECT_NAME":"STARLINK-11617 [DTC]","OBJECT_ID":"2025-048B","EPOCH":"2025-10-22T10:17:43.619712","MEAN_MOTION":15.70964424,"ECCENTRICITY":0.0002022,"INCLINATION":42.9996,"RA_OF_ASC_NODE":73.5304,"ARG_OF_PERICENTER":258.3851,"MEAN_ANOMALY":101.6789,"EPHEMERIS_TYPE":0,"CLASSIFICATION_TYPE":"U","NORAD_CAT_ID":63184,"ELEMENT_SET_NO":999,"REV_AT_EPOCH":3677,"BSTAR":0.00334,"MEAN_MOTION_DOT":0.00454777,"MEAN_MOTION_DDOT":0},{"OBJECT_NAME":"STARLINK-11618 [DTC]","OBJECT_ID":"2025-048C","EPOCH":"2025-10-22T09:31:51.557664","MEAN_MOTION":15.70879469,"ECCENTRICITY":0.0003629,"INCLINATION":42.9993,"RA_OF_ASC_NODE":73.2734,"ARG_OF_PERICENTER":300.4002,"MEAN_ANOMALY":59.6506,"EPHEMERIS_TYPE":0,"CLASSIFICATION_TYPE":"U","NORAD_CAT_ID":63185,"ELEMENT_SET_NO":999,"REV_AT_EPOCH":3676,"BSTAR":0.0028003,"MEAN_MOTION_DOT":0.00376267,"MEAN_MOTION_DDOT":0},{"OBJECT_NAME":"STARLINK-11646 [DTC]","OBJECT_ID":"2025-048D","EPOCH":"2025-10-22T12:19:41.121696","MEAN_MOTION":15.70851688,"ECCENTRICITY":0.0001667,"INCLINATION":42.9994,"RA_OF_ASC_NODE":72.4204,"ARG_OF_PERICENTER":274.0124,"MEAN_ANOMALY":86.0553,"EPHEMERIS_TYPE":0,"CLASSIFICATION_TYPE":"U","NORAD_CAT_ID":63186,"ELEMENT_SET_NO":999,"REV_AT_EPOCH":3679,"BSTAR":0.0017379,"MEAN_MOTION_DOT":0.00228915,"MEAN_MOTION_DDOT":0},{"OBJECT_NAME":"STARLINK-11622 [DTC]","OBJECT_ID":"2025-048E","EPOCH":"2025-10-22T12:04:35.557248","MEAN_MOTION":15.70874634,"ECCENTRICITY":0.0001409,"INCLINATION":42.9993,"RA_OF_ASC_NODE":73.231,"ARG_OF_PERICENTER":258.5073,"MEAN_ANOMALY":101.5637,"EPHEMERIS_TYPE":0,"CLASSIFICATION_TYPE":"U","NORAD_CAT_ID":63187,"ELEMENT_SET_NO":999,"REV_AT_EPOCH":3678,"BSTAR":0.0030635,"MEAN_MOTION_DOT":0.00413444,"MEAN_MOTION_DDOT":0},{"OBJECT_NAME":"STARLINK-11642 [DTC]","OBJECT_ID":"2025-048F","EPOCH":"2025-10-22T10:02:26.115648","MEAN_MOTION":15.70881823,"ECCENTRICITY":0.0002506,"INCLINATION":42.9998,"RA_OF_ASC_NODE":73.4438,"ARG_OF_PERICENTER":275.4474,"MEAN_ANOMALY":84.6107,"EPHEMERIS_TYPE":0,"CLASSIFICATION_TYPE":"U","NORAD_CAT_ID":63188,"ELEMENT_SET_NO":999,"REV_AT_EPOCH":3677,"BSTAR":0.0014578,"MEAN_MOTION_DOT":0.00191315,"MEAN_MOTION_DDOT":0},{"OBJECT_NAME":"STARLINK-11639 [DTC]","OBJECT_ID":"2025-048G","EPOCH":"2025-10-22T09:47:08.875104","MEAN_MOTION":15.70933051,"ECCENTRICITY":0.0002088,"INCLINATION":42.9999,"RA_OF_ASC_NODE":73.3567,"ARG_OF_PERICENTER":268.321,"MEAN_ANOMALY":91.7419,"EPHEMERIS_TYPE":0,"CLASSIFICATION_TYPE":"U","NORAD_CAT_ID":63189,"ELEMENT_SET_NO":999,"REV_AT_EPOCH":3677,"BSTAR":0.0032254,"MEAN_MOTION_DOT":0.00437663,"MEAN_MOTION_DDOT":0},{"OBJECT_NAME":"STARLINK-11637 [DTC]","OBJECT_ID":"2025-048H","EPOCH":"2025-10-22T10:34:19.963776","MEAN_MOTION":15.70853552,"ECCENTRICITY":0.0001523,"INCLINATION":42.9983,"RA_OF_ASC_NODE":73.6201,"ARG_OF_PERICENTER":266.9412,"MEAN_ANOMALY":93.1282,"EPHEMERIS_TYPE":0,"CLASSIFICATION_TYPE":"U","NORAD_CAT_ID":63190,"ELEMENT_SET_NO":999,"REV_AT_EPOCH":3677,"BSTAR":0.0023249,"MEAN_MOTION_DOT":0.00309418,"MEAN_MOTION_DDOT":0},{"OBJECT_NAME":"STARLINK-11647 [DTC]","OBJECT_ID":"2025-048J","EPOCH":"2025-10-22T09:39:29.801664","MEAN_MOTION":15.70904817,"ECCENTRICITY":0.000241,"INCLINATION":42.9994,"RA_OF_ASC_NODE":73.3105,"ARG_OF_PERICENTER":266.2994,"MEAN_ANOMALY":93.7598,"EPHEMERIS_TYPE":0,"CLASSIFICATION_TYPE":"U","NORAD_CAT_ID":63191,"ELEMENT_SET_NO":999,"REV_AT_EPOCH":3677,"BSTAR":0.0019205,"MEAN_MOTION_DOT":0.00254368,"MEAN_MOTION_DDOT":0},{"OBJECT_NAME":"STARLINK-11643 [DTC]","OBJECT_ID":"2025-048K","EPOCH":"2025-10-22T02:17:00.522816","MEAN_MOTION":15.70920539,"ECCENTRICITY":0.00013111,"INCLINATION":42.9999,"RA_OF_ASC_NODE":75.3142,"ARG_OF_PERICENTER":18.3682,"MEAN_ANOMALY":341.7233,"EPHEMERIS_TYPE":0,"CLASSIFICATION_TYPE":"U","NORAD_CAT_ID":63192,"ELEMENT_SET_NO":999,"REV_AT_EPOCH":3672,"BSTAR":0.00304062,"MEAN_MOTION_DOT":0.00411026,"MEAN_MOTION_DDOT":0},{"OBJECT_NAME":"STARLINK-11635 [DTC]","OBJECT_ID":"2025-048L","EPOCH":"2025-10-22T12:27:19.898784","MEAN_MOTION":15.70839446,"ECCENTRICITY":0.0002454,"INCLINATION":42.9994,"RA_OF_ASC_NODE":72.4606,"ARG_OF_PERICENTER":286.5583,"MEAN_ANOMALY":73.5015,"EPHEMERIS_TYPE":0,"CLASSIFICATION_TYPE":"U","NORAD_CAT_ID":63193,"ELEMENT_SET_NO":999,"REV_AT_EPOCH":3679,"BSTAR":0.0018991,"MEAN_MOTION_DOT":0.00250733,"MEAN_MOTION_DDOT":0},{"OBJECT_NAME":"STARLINK-11636 [DTC]","OBJECT_ID":"2025-048M","EPOCH":"2025-10-22T10:10:05.041344","MEAN_MOTION":15.70897153,"ECCENTRICITY":0.0001785,"INCLINATION":42.9995,"RA_OF_ASC_NODE":73.4841,"ARG_OF_PERICENTER":264.0134,"MEAN_ANOMALY":96.0531,"EPHEMERIS_TYPE":0,"CLASSIFICATION_TYPE":"U","NORAD_CAT_ID":63194,"ELEMENT_SET_NO":999,"REV_AT_EPOCH":3677,"BSTAR":0.002045,"MEAN_MOTION_DOT":0.00271349,"MEAN_MOTION_DDOT":0},{"OBJECT_NAME":"STARLINK-11631 [DTC]","OBJECT_ID":"2025-048N","EPOCH":"2025-10-22T12:12:13.322592","MEAN_MOTION":15.70876241,"ECCENTRICITY":9.33e-5,"INCLINATION":42.9984,"RA_OF_ASC_NODE":73.2697,"ARG_OF_PERICENTER":248.4407,"MEAN_ANOMALY":111.6362,"EPHEMERIS_TYPE":0,"CLASSIFICATION_TYPE":"U","NORAD_CAT_ID":63195,"ELEMENT_SET_NO":999,"REV_AT_EPOCH":3678,"BSTAR":0.0012409,"MEAN_MOTION_DOT":0.00162171,"MEAN_MOTION_DDOT":0},{"OBJECT_NAME":"STARLINK-32946","OBJECT_ID":"2025-048P","EPOCH":"2025-10-22T10:40:24.667680","MEAN_MOTION":15.27587446,"ECCENTRICITY":0.0001033,"INCLINATION":43.0001,"RA_OF_ASC_NODE":150.0627,"ARG_OF_PERICENTER":272.2294,"MEAN_ANOMALY":87.8439,"EPHEMERIS_TYPE":0,"CLASSIFICATION_TYPE":"U","NORAD_CAT_ID":63196,"ELEMENT_SET_NO":999,"REV_AT_EPOCH":3590,"BSTAR":0.0010601,"MEAN_MOTION_DOT":0.00029032,"MEAN_MOTION_DDOT":0},{"OBJECT_NAME":"STARLINK-32960","OBJECT_ID":"2025-048Q","EPOCH":"2025-10-22T11:38:14.910720","MEAN_MOTION":15.27605731,"ECCENTRICITY":0.0001581,"INCLINATION":42.9999,"RA_OF_ASC_NODE":145.9897,"ARG_OF_PERICENTER":275.0444,"MEAN_ANOMALY":85.0227,"EPHEMERIS_TYPE":0,"CLASSIFICATION_TYPE":"U","NORAD_CAT_ID":63197,"ELEMENT_SET_NO":999,"REV_AT_EPOCH":3595,"BSTAR":0.0012451,"MEAN_MOTION_DOT":0.00034185,"MEAN_MOTION_DDOT":0}]
